     3.00           N                   E                   RINEX VERSION / TYPE
BRD_USR             ESA                 20190106 161657  UTCPGM / RUN BY / DATE
 GAL   4.9750E+01  3.9062E-03 -3.2654E-03  0.0000E+00       IONOSPHERIC CORR
GAUT  0.0000000000E+00 0.000000000E+00      0 2035 GSTB   0 TIME SYSTEM CORR
GPGA -2.1245796233E-09 4.440892099E-15  86400 2035 GSTB   0 TIME SYSTEM CORR
                                                            END OF HEADER
E04 2019 01 06 14 20 00-1.944714458659E-04-7.858602657507E-12 0.000000000000E+00
     8.600000000000E+01 3.640625000000E+01 3.775871565921E-09 2.808969578481E+00
     1.750886440277E-06 8.163286838681E-05 5.472451448441E-06 5.440608583450E+03
     5.160000000000E+04 1.676380634308E-08 1.244341895926E+00 6.705522537231E-08
     9.522494197077E-01 2.204687500000E+02 1.986780028952E+00-5.798098656939E-09
     5.082354557610E-10 5.210000000000E+02 2.035000000000E+03 0.000000000000E+00
     3.120000000000E+00 0.000000000000E+00-7.916241884232E-09-8.847564458847E-09
     5.228500000000E+04 0.000000000000E+00 0.000000000000E+00 0.000000000000E+00
E05 2019 01 06 14 20 00 1.296940608881E-04-6.508571459563E-12 0.000000000000E+00
     8.600000000000E+01 3.456250000000E+01 3.747298947185E-09 1.653623448100E+00
     1.583248376846E-06 1.455892343074E-04 5.306676030159E-06 5.440603807449E+03
     5.160000000000E+04-3.352761268616E-08 1.244275401911E+00 9.313225746155E-09
     9.522205329273E-01 2.228125000000E+02 1.568913081630E+00-5.723809848226E-09
     4.628764235181E-10 5.210000000000E+02 2.035000000000E+03 0.000000000000E+00
     3.120000000000E+00 0.000000000000E+00-1.396983861923E-09-1.629814505577E-09
     5.228500000000E+04 0.000000000000E+00 0.000000000000E+00 0.000000000000E+00
E08 2019 01 06 14 20 00 6.428725144360E-03-7.403855306620E-12 0.000000000000E+00
     8.600000000000E+01 2.571875000000E+01 3.648366254813E-09 1.156424257118E+00
     1.320615410805E-06 2.272464334965E-04 5.653128027916E-06 5.440605798721E+03
     5.160000000000E+04 3.539025783539E-08 1.235652450730E+00 3.352761268616E-08
     9.581936391483E-01 2.181250000000E+02 4.948670669597E-01-5.643449358032E-09
     5.121641908372E-10 5.210000000000E+02 2.035000000000E+03 0.000000000000E+00
     3.120000000000E+00 0.000000000000E+00-8.381903171539E-09-9.778887033463E-09
     5.228500000000E+04 0.000000000000E+00 0.000000000000E+00 0.000000000000E+00
E11 2019 01 06 14 20 00 5.719155538827E-03 1.023181539495E-12 0.000000000000E+00
     8.600000000000E+01-1.724062500000E+02 2.828332097099E-09 1.747924862029E-01
    -7.953494787216E-06 2.416064962745E-04 2.186745405197E-06 5.440605054855E+03
     5.160000000000E+04-1.676380634308E-08-8.608838717030E-01-1.862645149231E-08
     9.819573755176E-01 3.018125000000E+02-3.563742771962E-01-5.675950711844E-09
    -2.560820954186E-10 5.210000000000E+02 2.035000000000E+03 0.000000000000E+00
     3.120000000000E+00 0.000000000000E+00-1.839362084866E-08-2.002343535423E-08
     5.228500000000E+04 0.000000000000E+00 0.000000000000E+00 0.000000000000E+00
E14 2019 01 06 14 20 00 6.463891011663E-03-5.542233338929E-12 0.000000000000E+00
     8.600000000000E+01 1.265625000000E+01 3.061913255263E-09 6.959797666709E-01
    -1.547858119011E-06 1.663912311196E-01 9.667128324509E-07 5.289343767166E+03
     5.160000000000E+04 3.660097718239E-06-1.461546176636E+00-5.999580025673E-06
     8.825608212636E-01 3.115625000000E+02 1.453406181527E+00-3.955521906222E-09
     1.220765135482E-09 5.210000000000E+02 2.035000000000E+03 0.000000000000E+00
     3.120000000000E+00 4.550000000000E+02 3.329478204250E-08 3.748573362827E-08
     5.228500000000E+04 0.000000000000E+00 0.000000000000E+00 0.000000000000E+00
E15 2019 01 06 14 20 00 9.236965561286E-04-1.094235813071E-12 0.000000000000E+00
     8.600000000000E+01-1.813750000000E+02 2.885834492304E-09-8.502564082265E-01
    -8.383765816689E-06 3.819768317044E-04 1.396983861923E-06 5.440597385406E+03
     5.160000000000E+04-2.607703208923E-08-8.661947587971E-01 5.401670932770E-08
     9.851559083836E-01 3.234375000000E+02-1.684321704360E+00-5.735953211189E-09
    -2.796545058755E-10 5.210000000000E+02 2.035000000000E+03 0.000000000000E+00
     3.120000000000E+00 4.550000000000E+02 1.164153218269E-09 1.164153218269E-09
     5.228500000000E+04 0.000000000000E+00 0.000000000000E+00 0.000000000000E+00
E19 2019 01 06 14 20 00-9.333307389170E-06 2.984279490192E-13 0.000000000000E+00
     8.600000000000E+01 3.371875000000E+01 3.602292907102E-09-2.906604188348E+00
     1.631677150726E-06 1.390725374222E-04 5.522742867470E-06 5.440609546661E+03
     5.160000000000E+04-5.401670932770E-08 1.241005750745E+00-2.793967723846E-08
     9.579789471427E-01 2.220937500000E+02 2.279810561889E+00-5.649163881779E-09
     5.446655446490E-10 5.210000000000E+02 2.035000000000E+03 0.000000000000E+00
     3.120000000000E+00 0.000000000000E+00-8.614733815193E-09-9.080395102501E-09
     5.228500000000E+04 0.000000000000E+00 0.000000000000E+00 0.000000000000E+00
E21 2019 01 06 14 20 00-5.130955833010E-04-1.918465386552E-12 0.000000000000E+00
     8.600000000000E+01 1.339687500000E+02 2.227592788181E-09-1.638813493057E+00
     6.297603249550E-06 4.978058859706E-05 1.269392669201E-05 5.440636844635E+03
     5.160000000000E+04-8.381903171539E-08-2.949120218695E+00 3.352761268616E-08
     9.899132536090E-01 8.206250000000E+01-3.546213326819E-01-5.007351433429E-09
    -2.367955777720E-10 5.210000000000E+02 2.035000000000E+03 0.000000000000E+00
     3.120000000000E+00 0.000000000000E+00-2.561137080193E-09-3.026798367500E-09
     5.228500000000E+04 0.000000000000E+00 0.000000000000E+00 0.000000000000E+00
E25 2019 01 06 14 20 00 1.931885140948E-03-1.131184035330E-11 0.000000000000E+00
     8.600000000000E+01 1.521562500000E+02 2.281523606045E-09 2.529782798785E+00
     7.070600986481E-06 2.203879412264E-04 1.119449734688E-05 5.440632139206E+03
     5.160000000000E+04-4.284083843231E-08-2.949128987426E+00 9.313225746155E-09
     9.899184674490E-01 1.149375000000E+02-1.380077541541E+00-4.992707966327E-09
    -2.171519023912E-10 5.210000000000E+02 2.035000000000E+03 0.000000000000E+00
     3.120000000000E+00 0.000000000000E+00-1.396983861923E-09-1.629814505577E-09
     5.228500000000E+04 0.000000000000E+00 0.000000000000E+00 0.000000000000E+00
E27 2019 01 06 14 20 00 5.551738431677E-04-7.631228982063E-12 0.000000000000E+00
     8.600000000000E+01 1.439687500000E+02 2.202591746787E-09-2.791392231548E-01
     6.709247827530E-06 2.086998429149E-04 1.280941069126E-05 5.440634971619E+03
     5.160000000000E+04-1.266598701477E-07-2.949103686257E+00-1.024454832077E-07
     9.898859921306E-01 8.012500000000E+01-9.274650010058E-01-4.966992609465E-09
    -2.317953694933E-10 5.210000000000E+02 2.035000000000E+03 0.000000000000E+00
     3.120000000000E+00 0.000000000000E+00-2.793967723846E-09-3.259629011154E-09
     5.228500000000E+04 0.000000000000E+00 0.000000000000E+00 0.000000000000E+00
E30 2019 01 06 14 20 00 5.210118077230E-03-3.056754849240E-11 0.000000000000E+00
     8.600000000000E+01 1.566250000000E+02 2.359026834365E-09-9.415968350019E-01
     7.105991244316E-06 2.941638231277E-04 1.249834895134E-05 5.440623641968E+03
     5.160000000000E+04-1.490116119385E-08-2.943097488829E+00-4.097819328308E-08
     9.878999857483E-01 8.371875000000E+01 5.003984333633E-01-5.104498337130E-09
    -2.675111429129E-10 5.210000000000E+02 2.035000000000E+03 0.000000000000E+00
     3.120000000000E+00 0.000000000000E+00-2.793967723846E-09-3.492459654808E-09
     5.228500000000E+04 0.000000000000E+00 0.000000000000E+00 0.000000000000E+00
E31 2019 01 06 14 20 00 9.395150118507E-04-9.620748642192E-12 0.000000000000E+00
     8.600000000000E+01 1.303437500000E+02 2.274737609095E-09-2.026111684553E+00
     6.008893251419E-06 2.560042776167E-04 1.151859760284E-05 5.440637847900E+03
     5.160000000000E+04 1.247972249985E-07-2.949151621694E+00 3.352761268616E-08
     9.898883269479E-01 1.080937500000E+02-1.536660270103E+00-5.025209320139E-09
    -2.550106222160E-10 5.210000000000E+02 2.035000000000E+03 0.000000000000E+00
     3.120000000000E+00 0.000000000000E+00-2.328306436539E-10-2.328306436539E-10
     5.228500000000E+04 0.000000000000E+00 0.000000000000E+00 0.000000000000E+00
E33 2019 01 06 14 20 00 8.478719973937E-04 1.278976924368E-13 0.000000000000E+00
     8.600000000000E+01-1.614062500000E+02 2.828689254833E-09 2.905121890993E+00
    -7.692724466324E-06 3.560959594324E-04 1.162290573120E-06 5.440599855423E+03
     5.160000000000E+04 3.911554813385E-08-8.662195786652E-01-2.421438694000E-08
     9.851940583613E-01 3.256562500000E+02-1.512346938818E+00-5.695951544959E-09
    -2.235807416067E-10 5.210000000000E+02 2.035000000000E+03 0.000000000000E+00
     3.120000000000E+00 4.550000000000E+02-8.149072527885E-09-9.313225746155E-09
     5.228500000000E+04 0.000000000000E+00 0.000000000000E+00 0.000000000000E+00
E36 2019 01 06 14 20 00 7.628269959241E-04-4.433786671143E-12 0.000000000000E+00
     8.600000000000E+01-1.706875000000E+02 2.822617573352E-09 6.699348143655E-01
    -7.890164852142E-06 3.249130677432E-04 2.086162567139E-06 5.440599956512E+03
     5.160000000000E+04-5.774199962616E-08-8.661938971384E-01 1.676380634308E-08
     9.852020444311E-01 3.026250000000E+02-1.631614223030E+00-5.708809223390E-09
    -2.546534644818E-10 5.210000000000E+02 2.035000000000E+03 0.000000000000E+00
     3.120000000000E+00 4.550000000000E+02 1.629814505577E-09 1.629814505577E-09
     5.228500000000E+04 0.000000000000E+00 0.000000000000E+00 0.000000000000E+00
